start=new Date('2023-01-11T00:00:00.000Z').valueOf();
sats=[{"TLE_LINE1":"1 52616U 22052U   23010.51914932  .00015253  00000-0  97372-3 0  9998","ARG_OF_PERICENTER":"23.2192","COUNTRY_CODE":"US","CLASSIFICATION_TYPE":"U","LAUNCH_DATE":"2022-05-14","SEMIMAJOR_AXIS":"6917.812","OBJECT_ID":"2022-052U","APOAPSIS":"541.807","OBJECT_NAME":"STARLINK-4015","PERIOD":"95.436","GP_ID":"222693706","PERIAPSIS":"537.547","FILE":"3739065","OBJECT_TYPE":"PAYLOAD","ELEMENT_SET_NO":"999","TIME_SYSTEM":"UTC","BSTAR":"0.00097372000000","DECAY_DATE":null,"CENTER_NAME":"EARTH","MEAN_MOTION_DDOT":"0.0000000000000","RA_OF_ASC_NODE":"50.3961","INCLINATION":"53.2166","ECCENTRICITY":"0.00030790","EPHEMERIS_TYPE":"0","MEAN_MOTION_DOT":"0.00015253","SITE":"AFETR","MEAN_MOTION":"15.08862496","REV_AT_EPOCH":"3712","NORAD_CAT_ID":"52616","MEAN_ELEMENT_THEORY":"SGP4","REF_FRAME":"TEME","TLE_LINE2":"2 52616  53.2166  50.3961 0003079  23.2192 336.8938 15.08862496 37129","MEAN_ANOMALY":"336.8938","RCS_SIZE":"LARGE","EPOCH":"2023-01-10T12:27:34.501248"},{"RA_OF_ASC_NODE":"50.4217","INCLINATION":"53.2171","ECCENTRICITY":"0.00030380","CENTER_NAME":"EARTH","MEAN_MOTION_DDOT":"0.0000000000000","BSTAR":"0.00004569000000","DECAY_DATE":null,"TLE_LINE2":"2 52617  53.2171  50.4217 0003038  18.7574 341.3530 15.08843436 36748","REF_FRAME":"TEME","MEAN_ANOMALY":"341.3530","RCS_SIZE":"LARGE","EPOCH":"2023-01-10T12:16:58.676736","REV_AT_EPOCH":"3674","MEAN_ELEMENT_THEORY":"SGP4","NORAD_CAT_ID":"52617","EPHEMERIS_TYPE":"0","MEAN_MOTION_DOT":"0.00000439","SITE":"AFETR","MEAN_MOTION":"15.08843436","OBJECT_ID":"2022-052V","SEMIMAJOR_AXIS":"6917.870","OBJECT_NAME":"STARLINK-3996","APOAPSIS":"541.837","COUNTRY_CODE":"US","CLASSIFICATION_TYPE":"U","LAUNCH_DATE":"2022-05-14","TLE_LINE1":"1 52617U 22052V   23010.51179024  .00000439  00000-0  45690-4 0  9991","ARG_OF_PERICENTER":"18.7574","TIME_SYSTEM":"UTC","OBJECT_TYPE":"PAYLOAD","ELEMENT_SET_NO":"999","FILE":"3739038","PERIAPSIS":"537.633","PERIOD":"95.437","GP_ID":"222664479"},{"GP_ID":"222664720","PERIOD":"95.437","PERIAPSIS":"537.561","FILE":"3739038","OBJECT_TYPE":"PAYLOAD","ELEMENT_SET_NO":"999","TIME_SYSTEM":"UTC","TLE_LINE1":"1 52618U 22052W   23010.51546325  .00003201  00000-0  21909-3 0  9990","ARG_OF_PERICENTER":"20.1582","COUNTRY_CODE":"US","CLASSIFICATION_TYPE":"U","LAUNCH_DATE":"2022-05-14","OBJECT_ID":"2022-052W","SEMIMAJOR_AXIS":"6917.847","OBJECT_NAME":"STARLINK-3983","APOAPSIS":"541.862","MEAN_MOTION":"15.08851035","MEAN_MOTION_DOT":"0.00003201","EPHEMERIS_TYPE":"0","SITE":"AFETR","MEAN_ELEMENT_THEORY":"SGP4","NORAD_CAT_ID":"52618","REV_AT_EPOCH":"3674","MEAN_ANOMALY":"339.9532","RCS_SIZE":"LARGE","EPOCH":"2023-01-10T12:22:16.024800","TLE_LINE2":"2 52618  53.2169  50.4170 0003109  20.1582 339.9532 15.08851035 36748","REF_FRAME":"TEME","DECAY_DATE":null,"BSTAR":"0.00021909000000","CENTER_NAME":"EARTH","MEAN_MOTION_DDOT":"0.0000000000000","INCLINATION":"53.2169","ECCENTRICITY":"0.00031090","RA_OF_ASC_NODE":"50.4170"},{"MEAN_MOTION_DDOT":"0.0000000000000","CENTER_NAME":"EARTH","ECCENTRICITY":"0.00029900","INCLINATION":"53.2147","RA_OF_ASC_NODE":"51.0504","DECAY_DATE":null,"BSTAR":"0.00007741600000","EPOCH":"2023-01-10T09:02:16.734912","RCS_SIZE":"LARGE","MEAN_ANOMALY":"341.2631","REF_FRAME":"TEME","TLE_LINE2":"2 52619  53.2147  51.0504 0002990  18.8472 341.2631 15.08839713 36725","MEAN_MOTION":"15.08839713","SITE":"AFETR","MEAN_MOTION_DOT":"0.00000944","EPHEMERIS_TYPE":"0","MEAN_ELEMENT_THEORY":"SGP4","NORAD_CAT_ID":"52619","REV_AT_EPOCH":"3672","APOAPSIS":"541.815","OBJECT_NAME":"STARLINK-3741","OBJECT_ID":"2022-052X","SEMIMAJOR_AXIS":"6917.881","ARG_OF_PERICENTER":"18.8472","TLE_LINE1":"1 52619U 22052X   23010.37658258  .00000944  00000-0  77416-4 0  9990","LAUNCH_DATE":"2022-05-14","CLASSIFICATION_TYPE":"U","COUNTRY_CODE":"US","OBJECT_TYPE":"PAYLOAD","ELEMENT_SET_NO":"999","TIME_SYSTEM":"UTC","GP_ID":"222663484","PERIOD":"95.438","FILE":"3739038","PERIAPSIS":"537.678"},{"CENTER_NAME":"EARTH","MEAN_MOTION_DDOT":"0.0000000000000","INCLINATION":"53.2169","ECCENTRICITY":"0.00029600","RA_OF_ASC_NODE":"65.1623","DECAY_DATE":null,"BSTAR":"-0.00003449100000","MEAN_ANOMALY":"337.3521","RCS_SIZE":"LARGE","EPOCH":"2023-01-10T13:42:25.612992","TLE_LINE2":"2 52620  53.2169  65.1623 0002960  22.7602 337.3521 15.08838984 36548","REF_FRAME":"TEME","MEAN_MOTION":"15.08838984","MEAN_MOTION_DOT":"-0.00000838","EPHEMERIS_TYPE":"0","SITE":"AFETR","NORAD_CAT_ID":"52620","MEAN_ELEMENT_THEORY":"SGP4","REV_AT_EPOCH":"3654","SEMIMAJOR_AXIS":"6917.883","OBJECT_ID":"2022-052Y","APOAPSIS":"541.796","OBJECT_NAME":"STARLINK-3975","TLE_LINE1":"1 52620U 22052Y   23010.57112978 -.00000838  00000-0 -34491-4 0  9998","ARG_OF_PERICENTER":"22.7602","CLASSIFICATION_TYPE":"U","COUNTRY_CODE":"US","LAUNCH_DATE":"2022-05-14","OBJECT_TYPE":"PAYLOAD","ELEMENT_SET_NO":"999","TIME_SYSTEM":"UTC","GP_ID":"222663734","PERIOD":"95.438","FILE":"3739038","PERIAPSIS":"537.701"},{"CENTER_NAME":"EARTH","MEAN_MOTION_DDOT":"0.0000000000000","INCLINATION":"53.2149","ECCENTRICITY":"0.00029750","RA_OF_ASC_NODE":"51.0772","DECAY_DATE":null,"BSTAR":"-0.00006942400000","MEAN_ANOMALY":"331.7396","RCS_SIZE":"LARGE","EPOCH":"2023-01-10T08:50:18.171168","REF_FRAME":"TEME","TLE_LINE2":"2 52621  53.2149  51.0772 0002975  28.3758 331.7396 15.08843362 36720","MEAN_MOTION":"15.08843362","EPHEMERIS_TYPE":"0","MEAN_MOTION_DOT":"-0.00001394","SITE":"AFETR","NORAD_CAT_ID":"52621","MEAN_ELEMENT_THEORY":"SGP4","REV_AT_EPOCH":"3672","SEMIMAJOR_AXIS":"6917.870","OBJECT_ID":"2022-052Z","OBJECT_NAME":"STARLINK-3984","APOAPSIS":"541.793","TLE_LINE1":"1 52621U 22052Z   23010.36826587 -.00001394  00000-0 -69424-4 0  9996","ARG_OF_PERICENTER":"28.3758","COUNTRY_CODE":"US","CLASSIFICATION_TYPE":"U","LAUNCH_DATE":"2022-05-14","ELEMENT_SET_NO":"999","OBJECT_TYPE":"PAYLOAD","TIME_SYSTEM":"UTC","GP_ID":"222664980","PERIOD":"95.437","FILE":"3739038","PERIAPSIS":"537.677"},{"SEMIMAJOR_AXIS":"6917.882","OBJECT_ID":"2022-052AA","OBJECT_NAME":"STARLINK-4008","APOAPSIS":"541.378","TLE_LINE1":"1 52622U 22052AA  23010.53433149 -.00000627  00000-0 -21255-4 0  9992","ARG_OF_PERICENTER":"24.7843","COUNTRY_CODE":"US","CLASSIFICATION_TYPE":"U","LAUNCH_DATE":"2022-05-14","OBJECT_TYPE":"PAYLOAD","ELEMENT_SET_NO":"999","TIME_SYSTEM":"UTC","GP_ID":"222665221","PERIOD":"95.438","PERIAPSIS":"538.117","FILE":"3739038","CENTER_NAME":"EARTH","MEAN_MOTION_DDOT":"0.0000000000000","INCLINATION":"53.2173","ECCENTRICITY":"0.00023570","RA_OF_ASC_NODE":"65.3327","DECAY_DATE":null,"BSTAR":"-0.00002125500000","MEAN_ANOMALY":"335.3262","EPOCH":"2023-01-10T12:49:26.240736","RCS_SIZE":"LARGE","TLE_LINE2":"2 52622  53.2173  65.3327 0002357  24.7843 335.3262 15.08839392 36541","REF_FRAME":"TEME","MEAN_MOTION":"15.08839392","EPHEMERIS_TYPE":"0","MEAN_MOTION_DOT":"-0.00000627","SITE":"AFETR","NORAD_CAT_ID":"52622","MEAN_ELEMENT_THEORY":"SGP4","REV_AT_EPOCH":"3654"},{"OBJECT_ID":"2022-052AB","SEMIMAJOR_AXIS":"6917.864","APOAPSIS":"541.648","OBJECT_NAME":"STARLINK-3986","TLE_LINE1":"1 52623U 22052AB  23010.43083001  .00002534  00000-0  17727-3 0  9995","ARG_OF_PERICENTER":"20.3594","COUNTRY_CODE":"US","CLASSIFICATION_TYPE":"U","LAUNCH_DATE":"2022-05-14","OBJECT_TYPE":"PAYLOAD","ELEMENT_SET_NO":"999","TIME_SYSTEM":"UTC","PERIOD":"95.437","GP_ID":"222693577","FILE":"3739061","PERIAPSIS":"537.810","CENTER_NAME":"EARTH","MEAN_MOTION_DDOT":"0.0000000000000","RA_OF_ASC_NODE":"50.7972","INCLINATION":"53.2176","ECCENTRICITY":"0.00027740","BSTAR":"0.00017727000000","DECAY_DATE":null,"TLE_LINE2":"2 52623  53.2176  50.7972 0002774  20.3594 339.7508 15.08845409 37118","REF_FRAME":"TEME","MEAN_ANOMALY":"339.7508","EPOCH":"2023-01-10T10:20:23.712864","RCS_SIZE":"LARGE","MEAN_MOTION_DOT":"0.00002534","EPHEMERIS_TYPE":"0","SITE":"AFETR","MEAN_MOTION":"15.08845409","REV_AT_EPOCH":"3711","NORAD_CAT_ID":"52623","MEAN_ELEMENT_THEORY":"SGP4"},{"DECAY_DATE":null,"BSTAR":"0.00001594900000","INCLINATION":"53.2171","ECCENTRICITY":"0.00035490","RA_OF_ASC_NODE":"50.4510","CENTER_NAME":"EARTH","MEAN_MOTION_DDOT":"0.0000000000000","NORAD_CAT_ID":"52624","MEAN_ELEMENT_THEORY":"SGP4","REV_AT_EPOCH":"3674","MEAN_MOTION":"15.08836548","EPHEMERIS_TYPE":"0","MEAN_MOTION_DOT":"-0.00000035","SITE":"AFETR","MEAN_ANOMALY":"343.7975","EPOCH":"2023-01-10T12:11:40.423200","RCS_SIZE":"LARGE","TLE_LINE2":"2 52624  53.2171  50.4510 0003549  16.3130 343.7975 15.08836548 36746","REF_FRAME":"TEME","CLASSIFICATION_TYPE":"U","COUNTRY_CODE":"US","LAUNCH_DATE":"2022-05-14","TLE_LINE1":"1 52624U 22052AC  23010.50810675 -.00000035  00000-0  15949-4 0  9999","ARG_OF_PERICENTER":"16.3130","SEMIMAJOR_AXIS":"6917.891","OBJECT_ID":"2022-052AC","OBJECT_NAME":"STARLINK-4009","APOAPSIS":"542.211","FILE":"3739038","PERIAPSIS":"537.301","GP_ID":"222664234","PERIOD":"95.438","TIME_SYSTEM":"UTC","OBJECT_TYPE":"PAYLOAD","ELEMENT_SET_NO":"999"},{"FILE":"3739062","PERIAPSIS":"538.583","GP_ID":"222693591","PERIOD":"95.437","TIME_SYSTEM":"UTC","ELEMENT_SET_NO":"999","OBJECT_TYPE":"PAYLOAD","LAUNCH_DATE":"2022-05-14","CLASSIFICATION_TYPE":"U","COUNTRY_CODE":"US","ARG_OF_PERICENTER":"60.7514","TLE_LINE1":"1 52625U 22052AD  23010.42715938  .00001558  00000-0  11598-3 0  9992","OBJECT_NAME":"STARLINK-3988","APOAPSIS":"540.889","SEMIMAJOR_AXIS":"6917.871","OBJECT_ID":"2022-052AD","NORAD_CAT_ID":"52625","MEAN_ELEMENT_THEORY":"SGP4","REV_AT_EPOCH":"3711","MEAN_MOTION":"15.08843088","SITE":"AFETR","MEAN_MOTION_DOT":"0.00001558","EPHEMERIS_TYPE":"0","RCS_SIZE":"MEDIUM","EPOCH":"2023-01-10T10:15:06.570432","MEAN_ANOMALY":"299.3644","REF_FRAME":"TEME","TLE_LINE2":"2 52625  53.2146  50.8160 0001667  60.7514 299.3644 15.08843088 37110","DECAY_DATE":null,"BSTAR":"0.00011598000000","ECCENTRICITY":"0.00016670","INCLINATION":"53.2146","RA_OF_ASC_NODE":"50.8160","MEAN_MOTION_DDOT":"0.0000000000000","CENTER_NAME":"EARTH"}];
